LEMUR-2-BALTO           
1 63395U 25052BH  26068.69493058  .00007621  00000+0  63456-3 0  9998
2 63395  97.6978 323.5166 0002279 359.2852   0.8367 14.98934076 53850
STARLINK-36224          
1 67203U 25304M   26068.68530200  .00003198  00000+0  28131-3 0  9996
2 67203  70.0008 174.4831 0004229 273.0988  86.9687 14.97535483 13880
